H1 CPF  1  DLR 2022 05 16 10  6362 technosat            
H2  1704205 6203    42829 2022 05 16 00 00 00 2022 05 23 00 00 00    60 1 1  0 0 0
H9
10 0 59716  36000.000000  0       1918123.587       -155539.934      -6718716.936
10 0 59716  36060.000000  0       2277442.197       -407710.012      -6594833.400
10 0 59716  36120.000000  0       2625066.237       -661275.517      -6443292.133
10 0 59716  36180.000000  0       2959538.105       -915071.308      -6264720.916
10 0 59716  36240.000000  0       3279463.584      -1167917.918      -6059859.529
10 0 59716  36300.000000  0       3583517.571      -1418626.817      -5829557.120
10 0 59716  36360.000000  0       3870449.638      -1666005.866      -5574769.121
10 0 59716  36420.000000  0       4139089.260      -1908864.900      -5296553.633
10 0 59716  36480.000000  0       4388350.689      -2146021.348      -4996067.401
10 0 59716  36540.000000  0       4617237.483      -2376305.900      -4674561.386
10 0 59716  36600.000000  0       4824846.653      -2598568.191      -4333375.929
10 0 59716  36660.000000  0       5010372.452      -2811682.478      -3973935.539
10 0 59716  36720.000000  0       5173109.770      -3014553.303      -3597743.278
10 0 59716  36780.000000  0       5312457.113      -3206121.084      -3206374.757
10 0 59716  36840.000000  0       5427919.138      -3385367.628      -2801471.753
10 0 59716  36900.000000  0       5519108.672      -3551321.514      -2384735.447
10 0 59716  36960.000000  0       5585748.219      -3703063.286      -1957919.425
10 0 59716  37020.000000  0       5627671.035      -3839730.522      -1522822.396
10 0 59716  37080.000000  0       5644821.653      -3960522.678      -1081280.581
10 0 59716  37140.000000  0       5637255.855      -4064705.641       -635159.909
10 0 59716  37200.000000  0       5605140.169      -4151616.016       -186348.081
10 0 59716  37260.000000  0       5548750.834      -4220665.155        263253.613
10 0 59716  37320.000000  0       5468472.129      -4271342.793        711738.551
10 0 59716  37380.000000  0       5364794.225      -4303220.349       1157203.066
10 0 59716  37440.000000  0       5238310.521      -4315953.800       1597754.816
10 0 59716  37500.000000  0       5089714.454      -4309286.103       2031521.067
10 0 59716  37560.000000  0       4919795.834      -4283049.203       2456656.864
10 0 59716  37620.000000  0       4729436.731      -4237165.638       2871353.090
10 0 59716  37680.000000  0       4519606.955      -4171649.691       3273844.369
10 0 59716  37740.000000  0       4291359.124      -4086608.098       3662416.783
10 0 59716  37800.000000  0       4045823.348      -3982240.335       4035415.364
10 0 59716  37860.000000  0       3784201.499      -3858838.410       4391251.341
10 0 59716  37920.000000  0       3507761.155      -3716786.123       4728409.009
10 0 59716  37980.000000  0       3217829.332      -3556557.896       5045452.201
10 0 59716  38040.000000  0       2915786.043      -3378717.219       5341030.436
10 0 59716  38100.000000  0       2603057.594      -3183914.622       5613884.764
10 0 59716  38160.000000  0       2281109.658      -2972885.187       5862853.099
10 0 59716  38220.000000  0       1951440.253      -2746445.684       6086875.089
10 0 59716  38280.000000  0       1615572.652      -2505491.326       6284996.536
10 0 59716  38340.000000  0       1275048.266      -2250992.150       6456373.393
10 0 59716  38400.000000  0        931419.437      -1983989.019       6600275.300
10 0 59716  38460.000000  0        586242.274      -1705589.277       6716088.592
10 0 59716  38520.000000  0        241069.569      -1416962.103       6803318.837
10 0 59716  38580.000000  0       -102556.260      -1119333.504       6861592.928
10 0 59716  38640.000000  0       -443110.098       -813981.020       6890660.579
10 0 59716  38700.000000  0       -779090.925       -502228.247       6890395.404
10 0 59716  38760.000000  0      -1109028.514       -185439.032       6860795.508
10 0 59716  38820.000000  0      -1431489.925        134988.533       6801983.524
10 0 59716  38880.000000  0      -1745085.776        457628.334       6714206.165
10 0 59716  38940.000000  0      -2048476.311        781032.622       6597833.281
10 0 59716  39000.000000  0      -2340377.237       1103738.548       6453356.391
10 0 59716  39060.000000  0      -2619565.249       1424274.834       6281386.717
10 0 59716  39120.000000  0      -2884883.273       1741168.543       6082652.753
10 0 59716  39180.000000  0      -3135245.413       2052951.922       5857997.349
10 0 59716  39240.000000  0      -3369641.589       2358169.338       5608374.299
10 0 59716  39300.000000  0      -3587141.800       2655384.215       5334844.376
10 0 59716  39360.000000  0      -3786899.983       2943185.924       5038570.891
10 0 59716  39420.000000  0      -3968157.477       3220196.607       4720814.823
10 0 59716  39480.000000  0      -4130246.101       3485077.947       4382929.514
10 0 59716  39540.000000  0      -4272590.767       3736537.800       4026354.885
10 0 59716  39600.000000  0      -4394711.656       3973336.669       3652611.291
10 0 59716  39660.000000  0      -4496225.930       4194293.980       3263292.909
10 0 59716  39720.000000  0      -4576848.894       4398294.117       2860060.807
10 0 59716  39780.000000  0      -4636394.681       4584292.221       2444635.695
10 0 59716  39840.000000  0      -4674776.458       4751319.629       2018790.330
10 0 59716  39900.000000  0      -4692006.126       4898488.930       1584341.693
10 0 59716  39960.000000  0      -4688193.537       5024998.641       1143142.973
10 0 59716  40020.000000  0      -4663545.247       5130137.480        697075.391
10 0 59716  40080.000000  0      -4618362.793       5213288.233        248039.893
10 0 59716  40140.000000  0      -4553040.498       5273931.209       -202051.260
10 0 59716  40200.000000  0      -4468062.819       5311647.236       -651283.016
10 0 59716  40260.000000  0      -4364001.134       5326120.033      -1097746.154
10 0 59716  40320.000000  0      -4241510.060       5317137.888      -1539545.621
10 0 59716  40380.000000  0      -4101323.526       5284595.098      -1974808.666
10 0 59716  40440.000000  0      -3944250.504       5228492.883      -2401693.037
10 0 59716  40500.000000  0      -3771170.341       5148939.636      -2818394.968
10 0 59716  40560.000000  0      -3583027.754       5046150.649      -3223156.870
10 0 59716  40620.000000  0      -3380827.599       4920447.320      -3614274.685
10 0 59716  40680.000000  0      -3165629.439       4772255.897      -3990104.962
10 0 59716  40740.000000  0      -2938541.913       4602105.741      -4349071.611
10 0 59716  40800.000000  0      -2700716.927       4410627.090      -4689672.247
10 0 59716  40860.000000  0      -2453343.798       4198548.473      -5010484.128
10 0 59716  40920.000000  0      -2197643.309       3966693.707      -5310169.818
10 0 59716  40980.000000  0      -1934861.684       3715978.430      -5587482.447
10 0 59716  41040.000000  0      -1666264.521       3447406.223      -5841270.548
10 0 59716  41100.000000  0      -1393130.731       3162064.365      -6070482.444
10 0 59716  41160.000000  0      -1116746.500       2861119.221      -6274170.191
10 0 59716  41220.000000  0       -838399.320       2545811.329      -6451493.026
10 0 59716  41280.000000  0       -559372.145       2217450.264      -6601720.389
10 0 59716  41340.000000  0       -280937.624       1877409.198      -6724234.570
10 0 59716  41400.000000  0         -4352.518       1527119.167      -6818532.876
10 0 59716  41460.000000  0        269147.752       1168063.172      -6884229.411
10 0 59716  41520.000000  0        538354.466        801770.075      -6921056.450
10 0 59716  41580.000000  0        802090.791        429808.253      -6928865.381
10 0 59716  41640.000000  0       1059216.753         53779.022      -6907627.145
10 0 59716  41700.000000  0       1308633.970       -324690.042      -6857432.227
10 0 59716  41760.000000  0       1549290.153       -703951.876      -6778490.235
10 0 59716  41820.000000  0       1780183.358      -1082346.822      -6671129.131
10 0 59716  41880.000000  0       2000366.056      -1458209.646      -6535794.050
10 0 59716  41940.000000  0       2208948.951      -1829876.606      -6373045.615
10 0 59716  42000.000000  0       2405104.475      -2195692.546      -6183557.911
10 0 59716  42060.000000  0       2588070.028      -2554018.084      -5968116.110
10 0 59716  42120.000000  0       2757151.008      -2903236.897      -5727613.643
10 0 59716  42180.000000  0       2911723.517      -3241763.004      -5463048.829
10 0 59716  42240.000000  0       3051236.718      -3568047.956      -5175521.013
10 0 59716  42300.000000  0       3175214.805      -3880587.848      -4866226.311
10 0 59716  42360.000000  0       3283258.647      -4177930.219      -4536453.016
10 0 59716  42420.000000  0       3375047.111      -4458680.845      -4187576.666
10 0 59716  42480.000000  0       3450338.064      -4721510.392      -3821054.690
10 0 59716  42540.000000  0       3508969.050      -4965160.890      -3438420.698
10 0 59716  42600.000000  0       3550857.574      -5188452.038      -3041278.335
10 0 59716  42660.000000  0       3576000.952      -5390287.168      -2631294.704
10 0 59716  42720.000000  0       3584475.796      -5569658.814      -2210193.494
10 0 59716  42780.000000  0       3576437.151      -5725653.940      -1779747.859
10 0 59716  42840.000000  0       3552117.242      -5857458.861      -1341773.008
10 0 59716  42900.000000  0       3511823.830      -5964363.707       -898118.482
10 0 59716  42960.000000  0       3455938.174      -6045766.392       -450660.218
10 0 59716  43020.000000  0       3384912.573      -6101176.068         -1292.481
10 0 59716  43080.000000  0       3299267.587      -6130216.060        448080.258
10 0 59716  43140.000000  0       3199588.996      -6132626.362        895551.538
99
